[{"OBJECT_NAME":"STARLINK-1364","OBJECT_ID":"2020-025BL","EPOCH":"2026-03-09T22:42:39.507840","MEAN_MOTION":15.49541195,"ECCENTRICITY":0.00079481,"INCLINATION":53.0507,"RA_OF_ASC_NODE":61.9794,"ARG_OF_PERICENTER":58.2992,"MEAN_ANOMALY":301.8789,"EPHEMERIS_TYPE":0,"CLASSIFICATION_TYPE":"U","NORAD_CAT_ID":45589,"ELEMENT_SET_NO":999,"REV_AT_EPOCH":32573,"BSTAR":0.001962035,"MEAN_MOTION_DOT":0.00111268,"MEAN_MOTION_DDOT":0},{"OBJECT_NAME":"SONATE-2","OBJECT_ID":"2024-043Q","EPOCH":"2026-03-09T22:01:02.618688","MEAN_MOTION":15.51375867,"ECCENTRICITY":0.00078362,"INCLINATION":97.5397,"RA_OF_ASC_NODE":213.8574,"ARG_OF_PERICENTER":203.8793,"MEAN_ANOMALY":156.2096,"EPHEMERIS_TYPE":0,"CLASSIFICATION_TYPE":"U","NORAD_CAT_ID":59112,"ELEMENT_SET_NO":999,"REV_AT_EPOCH":11246,"BSTAR":0.00067640221,"MEAN_MOTION_DOT":0.00039886,"MEAN_MOTION_DDOT":0}]
